ONEWEB-0444             
1 51638U 22012S   24075.80948187  .00000188  00000+0  50358-3 0  9993
2 51638  87.8973 199.8696 0001719  99.0763 261.0559 13.10369503101503
ONEWEB-0445             
1 51639U 22012T   24075.90694654 -.00000753  00000+0 -21945-2 0  9991
2 51639  87.8973 199.8269 0001907 114.7980 245.3346 13.10372578101522
ONEWEB-0446             
1 51640U 22012U   24075.80788115  .00000203  00000+0  54473-3 0  9999
2 51640  87.8978 199.8619 0001746 117.0013 243.1293 13.10372018101494
ONEWEB-0448             
1 51641U 22012V   24075.73636865  .00000016  00000+0  89616-5 0  9997
2 51641  87.8980 199.8775 0001738  99.1409 260.9915 13.10369491101456
ONEWEB-0449             
1 51642U 22012W   24075.35944896 -.00000270  00000+0 -81023-3 0  9998
2 51642  87.8972 199.9523 0002029 105.0653 255.0699 13.10369707101412
ONEWEB-0451             
1 51643U 22012X   24075.30087501  .00000029  00000+0  41384-4 0  9992
2 51643  87.9258 169.7598 0001953  99.8973 260.2379 13.17648215105168
